STARLINK-32464          
1 62140U 24224B   25106.65265263  .00019916  00000+0  48371-3 0  9997
2 62140  43.0039 208.5247 0000865   2.1229 357.9631 15.40642884 22366
STARLINK-32482          
1 62141U 24224C   25106.61020556  .00002114  00000+0  57872-4 0  9997
2 62141  43.0002 209.0699 0001930 246.4798 113.5856 15.40695736 22259
STARLINK-32454          
1 62142U 24224D   25106.76197169  .00000519  00000+0  28393-4 0  9992
2 62142  43.0003 211.9461 0002897 242.1089 117.9469 15.27584116 22396
STARLINK-32485          
1 62143U 24224E   25105.02212667  .00001417  00000+0  40104-4 0  9994
2 62143  42.9990 217.7857 0001660 279.9523  80.1146 15.41556316 21749
STARLINK-32388          
1 62144U 24224F   25106.75811631  .00001883  00000+0  77925-4 0  9990
2 62144  43.0025 211.9216 0003117 255.6135 104.4371 15.27584844 22398
STARLINK-32374          
1 62145U 24224G   25107.60490853  .00018116  00000+0  44106-3 0  9996
2 62145  43.0107 202.7604 0003810 249.2557 110.7892 15.40617148 22573
STARLINK-32384          
1 62146U 24224H   25106.74658142  .00001880  00000+0  52259-4 0  9997
2 62146  43.0039 208.3760 0003852 259.0617 100.9806 15.40707908 22430
STARLINK-32295          
1 62147U 24224J   25106.55868369  .00001167  00000+0  35183-4 0  9996
2 62147  43.0028 208.6754 0000916 251.4693 108.6064 15.40704613 22300
STARLINK-32479          
1 62148U 24224K   25107.60059639 -.00011248  00000+0 -26246-3 0  9998
2 62148  43.0040 203.5995 0005087 247.6496 112.3822 15.40673888 22503
STARLINK-32468          
1 62149U 24224L   25107.61833863 -.00001842  00000+0 -36755-4 0  9995
2 62149  43.0015 202.8704 0006778 239.1399 120.8791 15.40688739 22412
STARLINK-32629          
1 62150U 24224M   25106.75107025  .00001691  00000+0  47723-4 0  9992
2 62150  43.0016 208.4061 0001102 268.9162  91.1568 15.40701888 22432
STARLINK-32644          
1 62151U 24224N   25107.58696958  .00001280  00000+0  37923-4 0  9998
2 62151  42.9956 202.6346 0004290 243.4505 116.5912 15.40696332 22573
STARLINK-32623          
1 62152U 24224P   25107.37987049 -.00079232  00000+0 -18945-2 0  9995
2 62152  43.0017 204.5213 0000460 129.0092 231.0805 15.40933902 22473
STARLINK-32639          
1 62153U 24224Q   25107.59818258  .00002296  00000+0  62215-4 0  9990
2 62153  43.0125 202.7021 0001361 255.9822 104.0883 15.40700788 22415
STARLINK-32625          
1 62154U 24224R   25106.61902149 -.00004941  00000+0 -11094-3 0  9995
2 62154  42.9992 208.2671 0001913 246.6965 113.3690 15.40741033 22312
STARLINK-32635          
1 62155U 24224S   25107.61585599  .00000712  00000+0  35399-4 0  9998
2 62155  42.9904 207.1820 0001326 259.0509 101.0194 15.27574242 22369
STARLINK-32532          
1 62156U 24224T   25106.66385349  .00000055  00000+0  85996-5 0  9993
2 62156  43.0005 208.6070 0001852 235.2241 124.8441 15.40689707 22265
STARLINK-32503          
1 62157U 24224U   25107.60427214 -.00011645  00000+0 -41387-3 0  9990
2 62157  43.0098 207.0796 0001845 247.5684 112.4972 15.27611746 22091
STARLINK-32508          
1 62158U 24224V   25107.61388025 -.00000004  00000+0  71584-5 0  9998
2 62158  42.9791 202.8587 0001297  35.2446 324.8495 15.40699199 22575
STARLINK-32524          
1 62159U 24224W   25107.58335648 -.01213702  00000+0 -39851-1 0  9998
2 62159  42.9996 203.3180 0001172 284.0062 139.9118 15.33999254  5865
STARLINK-32484          
1 62160U 24224X   25107.58473078  .00000615  00000+0  22036-4 0  9994
2 62160  43.0027 202.6107 0004851 237.6227 122.4161 15.40693957 22570
STARLINK-32497          
1 62161U 24224Y   25107.58335648 -.01222951  00000+0 -34293-1 0  9992
2 62161  43.0000 203.3833 0001148 271.3961 124.9288 15.38875352  5882
STARLINK-32526          
1 62162U 24224Z   25107.58335648 -.01210094  00000+0 -33684-1 0  9991
2 62162  43.0001 203.5030 0001401 270.3934  76.8986 15.39063647  5838
STARLINK-32523          
1 62165U 24225C   25107.57139120  .00000939  00000+0  86487-4 0  9995
2 62165  69.9998 266.7916 0002800 260.7920  99.2922 14.98331310 21026
STARLINK-32551          
1 62166U 24225D   25107.61310508  .00000741  00000+0  69874-4 0  9994
2 62166  69.9997 266.5415 0002939 265.8472  94.2351 14.98334649 21039
STARLINK-32506          
1 62167U 24225E   25107.58809133  .00000108  00000+0  16824-4 0  9992
2 62167  69.9999 266.8511 0003043 268.1770  91.9040 14.98326383 21020
STARLINK-32562          
1 62168U 24225F   25103.88671022  .00047016  00000+0  38848-2 0  9993
2 62168  69.9987 276.0033 0003805 232.8198 127.2614 14.98694345 20461
STARLINK-32558          
1 62169U 24225G   25107.63397909 -.00000034  00000+0  49812-5 0  9996
2 62169  69.9992 266.6087 0002978 267.9340  92.1478 14.98329020 21037
STARLINK-32538          
1 62170U 24225H   25107.58335648 -.00036395  00000+0 -30567-2 0  9998
2 62170  70.0014 266.8102 0003612 263.2519 116.2048 14.98347934  5587
STARLINK-32257          
1 62171U 24225J   25107.60058605  .00000351  00000+0  37228-4 0  9991
2 62171  69.9995 266.4982 0002894 262.9595  97.1235 14.98330719 21032
STARLINK-32407          
1 62172U 24225K   25107.61730995 -.00003442  00000+0 -28090-3 0  9994
2 62172  70.0017 266.5504 0002469 273.6116  86.4760 14.98321994 21037
STARLINK-32575          
1 62173U 24225L   25107.58335648 -.00037834  00000+0 -31778-2 0  9995
2 62173  70.0011 256.4917 0003305 279.1367  23.3281 14.98357186  5646
STARLINK-32552          
1 62174U 24225M   25107.60475879 -.00000116  00000+0 -19364-5 0  9993
2 62174  69.9992 266.5130 0002925 263.7198  96.3628 14.98330961 21037
STARLINK-32534          
1 62175U 24225N   25107.58392013  .00000421  00000+0  43108-4 0  9998
2 62175  70.0009 266.8348 0004089 280.5843  79.4855 14.98335908 21020
STARLINK-32516          
1 62176U 24225P   25107.57556926  .00002587  00000+0  22442-3 0  9995
2 62176  69.9988 266.8030 0003477 276.0355  84.0408 14.98345361 21020
STARLINK-32542          
1 62177U 24225Q   25107.62985347  .00001502  00000+0  13367-3 0  9997
2 62177  70.0012 266.5963 0002201 270.3489  89.7418 14.98316382 21038
STARLINK-32600          
1 62178U 24225R   25107.57793879 -.00001916  00000+0 -14970-3 0  9991
2 62178  70.0004 256.8089 0002833 279.7520  80.3319 14.99119589 21275
STARLINK-32584          
1 62179U 24225S   25107.62144852  .00000389  00000+0  40394-4 0  9990
2 62179  69.9999 266.4990 0002988 266.0711  94.0107 14.98331950 21034
STARLINK-32587          
1 62180U 24225T   25107.60892682  .00000379  00000+0  39592-4 0  9998
2 62180  70.0001 266.4352 0002986 266.1239  93.9578 14.98330340 21031
STARLINK-32602          
1 62181U 24225U   25107.62743248 -.00000148  00000+0 -46492-5 0  9998
2 62181  69.9997 256.5824 0002561 275.2350  84.8516 14.98329834 21285
STARLINK-32565          
1 62182U 24225V   25107.59224208  .00001946  00000+0  17082-3 0  9991
2 62182  69.9988 266.4687 0003185 270.2546  89.8248 14.98335667 21039
STARLINK-32589          
1 62183U 24225W   25107.59212946 -.00003930  00000+0 -32204-3 0  9998
2 62183  69.9993 266.8656 0003761 282.6189  77.4549 14.98297458 21027
STARLINK-32581          
1 62184U 24225X   25107.61288398  .00000304  00000+0  32626-4 0  9995
2 62184  70.0001 256.5294 0003255 274.7223  85.3565 14.99141551 21281
STARLINK-32686          
1 62192U 24229A   25106.97609140  .00001166  00000+0  35175-4 0  9997
2 62192  43.0022 313.3299 0000922 280.7206  79.3547 15.40702102 20628
STARLINK-32688          
1 62193U 24229B   25106.97314636  .00000396  00000+0  23911-4 0  9990
2 62193  43.0009 315.8971 0000768 351.8301   8.2538 15.27595128 20592
STARLINK-32684          
1 62194U 24229C   25107.60130933  .00001211  00000+0  53518-4 0  9991
2 62194  42.9976 312.0149 0000120 101.1818 258.9047 15.27580707 21879
STARLINK-32672          
1 62195U 24229D   25107.61544079  .00000385  00000+0  23521-4 0  9995
2 62195  43.0059 312.1189 0001663 284.2390  75.8277 15.27590873 20695
STARLINK-32682          
1 62196U 24229E   25107.61695427 -.00006163  00000+0 -14042-3 0  9999
2 62196  43.0010 285.7725 0001379 258.5353 101.5349 15.40693326 20993
STARLINK-32663          
1 62197U 24229F   25106.60267835  .00008210  00000+0  30740-3 0  9992
2 62197  43.0014 318.2791 0001221 288.8333  71.2386 15.27594180 20530
STARLINK-32640          
1 62198U 24229G   25107.60773846 -.00000019  00000+0  88788-5 0  9995
2 62198  42.9925 312.0507 0003558 148.9819 211.1243 15.27574860 20694
STARLINK-32653          
1 62199U 24229H   25106.97538936  .00002051  00000+0  84021-4 0  9996
2 62199  42.9986 308.9477 0000982 251.8785 108.1960 15.27587606 20677
STARLINK-32647          
1 62200U 24229J   25106.97572179  .00016783  00000+0  61803-3 0  9995
2 62200  43.0033 315.9106 0001198 256.7767 103.2951 15.27579706 20595
STARLINK-32667          
1 62201U 24229K   25106.61280780  .00002571  00000+0  10291-3 0  9996
2 62201  42.9983 317.4915 0000738 285.4214  74.6556 15.27584468 21570
STARLINK-32655          
1 62202U 24229L   25106.92188376  .00003454  00000+0  13490-3 0  9994
2 62202  43.0040 316.3741 0000987 280.6924  79.3817 15.27602352 21613
STARLINK-32665          
1 62203U 24229M   25107.62315113 -.00004828  00000+0 -16580-3 0  9995
2 62203  43.0056 312.1770 0003013 285.6653  74.3866 15.27612974 20691
STARLINK-32664          
1 62204U 24229N   25107.63342985 -.00000995  00000+0 -26603-4 0  9993
2 62204  43.0009 312.2411 0001593 214.5468 145.5280 15.27594454 20692
STARLINK-32660          
1 62205U 24229P   25107.52224380  .00000579  00000+0  21116-4 0  9990
2 62205  43.0038 302.7328 0001668 276.2608  83.8058 15.40701148 20793
STARLINK-32448          
1 62206U 24229Q   25107.59745805  .00000221  00000+0  17539-4 0  9996
2 62206  43.0017 311.9884 0000788 314.6695  45.4092 15.27580454 20696
STARLINK-32430          
1 62207U 24229R   25107.62214310 -.00022054  00000+0 -52063-3 0  9993
2 62207  43.0024 309.5758 0001763 275.2126  84.8529 15.40789410 20727
